IRIDIUM 171             
1 43929U 19002H   25308.85554377  .00000330  00000+0  11090-3 0  9990
2 43929  86.3947  87.6381 0001812  98.1673 261.9729 14.34217816356800
IRIDIUM 170             
1 43930U 19002J   25308.46392226  .00001285  00000+0  19985-3 0  9993
2 43930  86.6071  87.5269 0004041 113.9092 246.2549 14.72248866366195
IRIDIUM 167             
1 43931U 19002K   25308.43058914 -.00000021  00000+0 -14662-4 0  9991
2 43931  86.3937  87.5548 0001488  94.7624 265.3742 14.34217122356749
IRIDIUM 181             
1 56726U 23068S   25308.82591789  .00000362  00000+0  10155-3 0  9997
2 56726  86.4515 150.5606 0002135 102.9385 257.2055 14.43324691130073
IRIDIUM 177             
1 56727U 23068T   25308.88525157  .00001729  00000+0  22411-3 0  9996
2 56727  86.1952  75.3050 0002124  85.8232 274.3232 14.80233470133188
IRIDIUM 174             
1 56728U 23068U   25308.85937986  .00001293  00000+0  20120-3 0  9992
2 56728  86.6065  87.4817 0003126  94.3950 265.7625 14.72238876133017
IRIDIUM 178             
1 56729U 23068V   25308.94194821  .00000562  00000+0  70507-4 0  9999
2 56729  86.6509 119.0946 0001927  90.2290 269.9152 14.80234893133199
IRIDIUM 179             
1 56730U 23068W   25308.93656953  .00000394  00000+0  48345-4 0  9997
2 56730  86.6764 127.4044 0001628  97.1581 262.9826 14.80235455133199
